start=new Date('2021-12-19T00:00:00.000Z').valueOf();
sats=[{"DECAY_DATE":null,"INCLINATION":"53.0537","COUNTRY_CODE":"US","MEAN_MOTION_DDOT":"0.0000000000000","ECCENTRICITY":"0.00026920","ARG_OF_PERICENTER":"74.4542","MEAN_ELEMENT_THEORY":"SGP4","PERIOD":"95.592","APOAPSIS":"549.081","MEAN_MOTION_DOT":"-0.00000161","EPHEMERIS_TYPE":"0","SITE":"AFETR","MEAN_MOTION":"15.06398921","REF_FRAME":"TEME","EPOCH":"2021-12-18T03:00:45.945792","REV_AT_EPOCH":"9746","CENTER_NAME":"EARTH","GP_ID":"191939641","ELEMENT_SET_NO":"999","RCS_SIZE":"LARGE","LAUNCH_DATE":"2020-03-18","NORAD_CAT_ID":"45402","RA_OF_ASC_NODE":"221.4553","MEAN_ANOMALY":"285.6744","FILE":"3243681","BSTAR":"0.00000813830000","OBJECT_ID":"2020-019AU","CLASSIFICATION_TYPE":"U","OBJECT_TYPE":"PAYLOAD","SEMIMAJOR_AXIS":"6925.352","PERIAPSIS":"545.353","TLE_LINE2":"2 45402  53.0537 221.4553 0002692  74.4542 285.6744 15.06398921 97463","TIME_SYSTEM":"UTC","TLE_LINE1":"1 45402U 20019AU  21352.12553178 -.00000161  00000-0  81383-5 0  9999","OBJECT_NAME":"STARLINK-1257"},{"MEAN_MOTION":"15.06399186","EPOCH":"2021-12-18T08:08:36.972384","REF_FRAME":"TEME","REV_AT_EPOCH":"9748","CENTER_NAME":"EARTH","SITE":"AFETR","RCS_SIZE":"LARGE","ELEMENT_SET_NO":"999","LAUNCH_DATE":"2020-03-18","GP_ID":"191940393","BSTAR":"-0.00000122840000","FILE":"3243681","OBJECT_ID":"2020-019AV","RA_OF_ASC_NODE":"220.5071","NORAD_CAT_ID":"45403","MEAN_ANOMALY":"282.2419","OBJECT_NAME":"STARLINK-1259","TLE_LINE1":"1 45403U 20019AV  21352.33931681 -.00000300  00000-0 -12284-5 0  9992","SEMIMAJOR_AXIS":"6925.351","OBJECT_TYPE":"PAYLOAD","CLASSIFICATION_TYPE":"U","TLE_LINE2":"2 45403  53.0545 220.5071 0002465  77.8846 282.2419 15.06399186 97488","PERIAPSIS":"545.509","TIME_SYSTEM":"UTC","INCLINATION":"53.0545","DECAY_DATE":null,"COUNTRY_CODE":"US","MEAN_MOTION_DDOT":"0.0000000000000","ARG_OF_PERICENTER":"77.8846","MEAN_ELEMENT_THEORY":"SGP4","PERIOD":"95.592","ECCENTRICITY":"0.00024650","APOAPSIS":"548.923","MEAN_MOTION_DOT":"-0.00000300","EPHEMERIS_TYPE":"0"},{"INCLINATION":"53.0529","DECAY_DATE":null,"MEAN_MOTION_DDOT":"0.0000000000000","COUNTRY_CODE":"US","PERIOD":"95.592","MEAN_ELEMENT_THEORY":"SGP4","ARG_OF_PERICENTER":"69.8682","ECCENTRICITY":"0.00024060","EPHEMERIS_TYPE":"0","MEAN_MOTION_DOT":"-0.00000212","APOAPSIS":"548.863","CENTER_NAME":"EARTH","EPOCH":"2021-12-18T08:24:31.779648","REV_AT_EPOCH":"9739","REF_FRAME":"TEME","MEAN_MOTION":"15.06405518","SITE":"AFETR","LAUNCH_DATE":"2020-03-18","RCS_SIZE":"LARGE","ELEMENT_SET_NO":"999","GP_ID":"191941143","FILE":"3243681","BSTAR":"0.00000469110000","OBJECT_ID":"2020-019AW","MEAN_ANOMALY":"290.2565","NORAD_CAT_ID":"45404","RA_OF_ASC_NODE":"220.4442","OBJECT_NAME":"STARLINK-1260","TLE_LINE1":"1 45404U 20019AW  21352.35036782 -.00000212  00000-0  46911-5 0  9998","TIME_SYSTEM":"UTC","TLE_LINE2":"2 45404  53.0529 220.4442 0002406  69.8682 290.2565 15.06405518 97394","PERIAPSIS":"545.530","OBJECT_TYPE":"PAYLOAD","CLASSIFICATION_TYPE":"U","SEMIMAJOR_AXIS":"6925.332"},{"MEAN_MOTION_DDOT":"0.0000000000000","COUNTRY_CODE":"US","DECAY_DATE":null,"INCLINATION":"53.0526","EPHEMERIS_TYPE":"0","MEAN_MOTION_DOT":"-0.00000353","APOAPSIS":"549.086","ECCENTRICITY":"0.00026830","PERIOD":"95.592","MEAN_ELEMENT_THEORY":"SGP4","ARG_OF_PERICENTER":"74.9221","GP_ID":"191939891","LAUNCH_DATE":"2020-03-18","RCS_SIZE":"LARGE","ELEMENT_SET_NO":"999","SITE":"AFETR","CENTER_NAME":"EARTH","REF_FRAME":"TEME","EPOCH":"2021-12-18T08:03:18.937440","REV_AT_EPOCH":"9739","MEAN_MOTION":"15.06395474","TIME_SYSTEM":"UTC","PERIAPSIS":"545.369","TLE_LINE2":"2 45405  53.0526 220.5217 0002683  74.9221 285.2065 15.06395474 97394","OBJECT_TYPE":"PAYLOAD","SEMIMAJOR_AXIS":"6925.362","CLASSIFICATION_TYPE":"U","OBJECT_NAME":"STARLINK-1263","TLE_LINE1":"1 45405U 20019AX  21352.33563585 -.00000353  00000-0 -47795-5 0  9991","MEAN_ANOMALY":"285.2065","NORAD_CAT_ID":"45405","RA_OF_ASC_NODE":"220.5217","FILE":"3243681","BSTAR":"-0.00000477950000","OBJECT_ID":"2020-019AX"},{"DECAY_DATE":null,"INCLINATION":"53.0527","COUNTRY_CODE":"US","MEAN_MOTION_DDOT":"0.0000000000000","ECCENTRICITY":"0.00026410","ARG_OF_PERICENTER":"69.7196","PERIOD":"95.592","MEAN_ELEMENT_THEORY":"SGP4","APOAPSIS":"549.045","EPHEMERIS_TYPE":"0","MEAN_MOTION_DOT":"0.00002597","SITE":"AFETR","REV_AT_EPOCH":"9739","EPOCH":"2021-12-18T08:13:55.062624","REF_FRAME":"TEME","MEAN_MOTION":"15.06399245","CENTER_NAME":"EARTH","GP_ID":"191940141","LAUNCH_DATE":"2020-03-18","ELEMENT_SET_NO":"999","RCS_SIZE":"LARGE","NORAD_CAT_ID":"45406","RA_OF_ASC_NODE":"220.4751","MEAN_ANOMALY":"290.4077","OBJECT_ID":"2020-019AY","FILE":"3243681","BSTAR":"0.00019322000000","SEMIMAJOR_AXIS":"6925.351","OBJECT_TYPE":"PAYLOAD","CLASSIFICATION_TYPE":"U","TIME_SYSTEM":"UTC","TLE_LINE2":"2 45406  53.0527 220.4751 0002641  69.7196 290.4077 15.06399245 97396","PERIAPSIS":"545.387","TLE_LINE1":"1 45406U 20019AY  21352.34299841  .00002597  00000-0  19322-3 0  9997","OBJECT_NAME":"STARLINK-1265"},{"MEAN_MOTION_DDOT":"0.0000000000000","COUNTRY_CODE":"US","DECAY_DATE":null,"INCLINATION":"53.0548","EPHEMERIS_TYPE":"0","MEAN_MOTION_DOT":"-0.00000670","APOAPSIS":"549.157","ECCENTRICITY":"0.00027640","PERIOD":"95.593","MEAN_ELEMENT_THEORY":"SGP4","ARG_OF_PERICENTER":"74.5606","GP_ID":"191940893","LAUNCH_DATE":"2020-03-18","ELEMENT_SET_NO":"999","RCS_SIZE":"LARGE","SITE":"AFETR","CENTER_NAME":"EARTH","REV_AT_EPOCH":"9739","REF_FRAME":"TEME","EPOCH":"2021-12-18T08:33:48.343392","MEAN_MOTION":"15.06390351","TIME_SYSTEM":"UTC","TLE_LINE2":"2 45407  53.0548 220.4154 0002764  74.5606 285.5688 15.06390351 97395","PERIAPSIS":"545.329","OBJECT_TYPE":"PAYLOAD","CLASSIFICATION_TYPE":"U","SEMIMAJOR_AXIS":"6925.378","OBJECT_NAME":"STARLINK-1275","TLE_LINE1":"1 45407U 20019AZ  21352.35680953 -.00000670  00000-0 -26072-4 0  9990","MEAN_ANOMALY":"285.5688","NORAD_CAT_ID":"45407","RA_OF_ASC_NODE":"220.4154","FILE":"3243681","BSTAR":"-0.00002607200000","OBJECT_ID":"2020-019AZ"},{"MEAN_ANOMALY":"296.9993","NORAD_CAT_ID":"45408","RA_OF_ASC_NODE":"250.0627","FILE":"3243681","BSTAR":"0.00004194600000","OBJECT_ID":"2020-019BA","TIME_SYSTEM":"UTC","PERIAPSIS":"545.864","TLE_LINE2":"2 45408  53.0527 250.0627 0001949  63.1195 296.9993 15.06399785 96998","OBJECT_TYPE":"PAYLOAD","CLASSIFICATION_TYPE":"U","SEMIMAJOR_AXIS":"6925.349","TLE_LINE1":"1 45408U 20019BA  21352.43606053  .00000343  00000-0  41946-4 0  9991","OBJECT_NAME":"STARLINK-1278","SITE":"AFETR","CENTER_NAME":"EARTH","EPOCH":"2021-12-18T10:27:55.629792","REV_AT_EPOCH":"9699","REF_FRAME":"TEME","MEAN_MOTION":"15.06399785","GP_ID":"191940644","LAUNCH_DATE":"2020-03-18","RCS_SIZE":"LARGE","ELEMENT_SET_NO":"999","ECCENTRICITY":"0.00019490","PERIOD":"95.592","MEAN_ELEMENT_THEORY":"SGP4","ARG_OF_PERICENTER":"63.1195","EPHEMERIS_TYPE":"0","MEAN_MOTION_DOT":"0.00000343","APOAPSIS":"548.564","DECAY_DATE":null,"INCLINATION":"53.0527","MEAN_MOTION_DDOT":"0.0000000000000","COUNTRY_CODE":"US"},{"GP_ID":"191948156","ELEMENT_SET_NO":"999","RCS_SIZE":"LARGE","LAUNCH_DATE":"2020-03-18","SITE":"AFETR","CENTER_NAME":"EARTH","MEAN_MOTION":"15.06393950","EPOCH":"2021-12-18T19:54:33.231456","REF_FRAME":"TEME","REV_AT_EPOCH":"9747","TLE_LINE2":"2 45409  53.0524 218.3031 0002519  75.3816 284.7452 15.06393950 97478","PERIAPSIS":"545.488","TIME_SYSTEM":"UTC","SEMIMAJOR_AXIS":"6925.367","OBJECT_TYPE":"PAYLOAD","CLASSIFICATION_TYPE":"U","TLE_LINE1":"1 45409U 20019BB  21352.82955129 -.00000221  00000-0  41245-5 0  9995","OBJECT_NAME":"STARLINK-1282","MEAN_ANOMALY":"284.7452","RA_OF_ASC_NODE":"218.3031","NORAD_CAT_ID":"45409","FILE":"3243846","BSTAR":"0.00000412450000","OBJECT_ID":"2020-019BB","MEAN_MOTION_DDOT":"0.0000000000000","COUNTRY_CODE":"US","DECAY_DATE":null,"INCLINATION":"53.0524","MEAN_MOTION_DOT":"-0.00000221","EPHEMERIS_TYPE":"0","APOAPSIS":"548.977","ECCENTRICITY":"0.00025190","MEAN_ELEMENT_THEORY":"SGP4","PERIOD":"95.593","ARG_OF_PERICENTER":"75.3816"},{"RCS_SIZE":"LARGE","ELEMENT_SET_NO":"999","LAUNCH_DATE":"2020-03-18","GP_ID":"191948651","CENTER_NAME":"EARTH","MEAN_MOTION":"15.76698175","EPOCH":"2021-12-18T18:49:06.681504","REF_FRAME":"TEME","REV_AT_EPOCH":"9855","SITE":"AFETR","TLE_LINE1":"1 45410U 20019BC  21352.78410511 -.00005894  00000-0 -32075-4 0  9995","OBJECT_NAME":"STARLINK-1285","TLE_LINE2":"2 45410  53.0546 139.6356 0001369  40.4930 319.6191 15.76698175 98553","PERIAPSIS":"338.885","TIME_SYSTEM":"UTC","OBJECT_TYPE":"PAYLOAD","SEMIMAJOR_AXIS":"6717.940","CLASSIFICATION_TYPE":"U","OBJECT_ID":"2020-019BC","FILE":"3243846","BSTAR":"-0.00003207500000","MEAN_ANOMALY":"319.6191","RA_OF_ASC_NODE":"139.6356","NORAD_CAT_ID":"45410","MEAN_MOTION_DDOT":"0.0000000000000","COUNTRY_CODE":"US","INCLINATION":"53.0546","DECAY_DATE":null,"MEAN_MOTION_DOT":"-0.00005894","EPHEMERIS_TYPE":"0","APOAPSIS":"340.725","MEAN_ELEMENT_THEORY":"SGP4","PERIOD":"91.330","ARG_OF_PERICENTER":"40.4930","ECCENTRICITY":"0.00013690"},{"FILE":"3243847","BSTAR":"-0.00001147800000","OBJECT_ID":"2020-019BD","MEAN_ANOMALY":"286.2020","NORAD_CAT_ID":"45411","RA_OF_ASC_NODE":"218.2264","OBJECT_NAME":"STARLINK-1293","TLE_LINE1":"1 45411U 20019BD  21352.84429296 -.00000453  00000-0 -11478-4 0  9993","TIME_SYSTEM":"UTC","PERIAPSIS":"545.419","TLE_LINE2":"2 45411  53.0535 218.2264 0002598  73.9255 286.2020 15.06398566 97474","OBJECT_TYPE":"PAYLOAD","SEMIMAJOR_AXIS":"6925.353","CLASSIFICATION_TYPE":"U","CENTER_NAME":"EARTH","REF_FRAME":"TEME","EPOCH":"2021-12-18T20:15:46.911744","REV_AT_EPOCH":"9747","MEAN_MOTION":"15.06398566","SITE":"AFETR","LAUNCH_DATE":"2020-03-18","ELEMENT_SET_NO":"999","RCS_SIZE":"LARGE","GP_ID":"191948167","PERIOD":"95.592","MEAN_ELEMENT_THEORY":"SGP4","ARG_OF_PERICENTER":"73.9255","ECCENTRICITY":"0.00025980","EPHEMERIS_TYPE":"0","MEAN_MOTION_DOT":"-0.00000453","APOAPSIS":"549.017","INCLINATION":"53.0535","DECAY_DATE":null,"MEAN_MOTION_DDOT":"0.0000000000000","COUNTRY_CODE":"US"}];
